[Satellite]
VERSION=1.1
NAME=IRIDIUM 51 [-]
NICKNAME=IRIDIUM 51 [-]
TLE1=1 25262U 98018A   19317.47215400  .00000857  00000-0  57694-4 0  9992
TLE2=2 25262  86.3961 284.0448 0208430  88.7426 273.7668 14.88724967141117
STATUS=2
